CCSDS_OMM_VERS = 2.0
CREATION_DATE  = 
ORIGINATOR     = 

OBJECT_NAME    = STARLINK-36526
OBJECT_ID      = 2026-012R
CENTER_NAME    = EARTH
REF_FRAME      = TEME
TIME_SYSTEM    = UTC
MEAN_ELEMENT_THEORY = SGP/SGP4

EPOCH          = 2026-02-14T06:00:02.000160
MEAN_MOTION    = 15.46457258
ECCENTRICITY   = .00012155
INCLINATION    = 43.0000
RA_OF_ASC_NODE = 86.7048
ARG_OF_PERICENTER = 278.5706
MEAN_ANOMALY   = 230.6565

EPHEMERIS_TYPE = 0
CLASSIFICATION_TYPE = U
NORAD_CAT_ID   = 67508
ELEMENT_SET_NO = 999
REV_AT_EPOCH   = 530
BSTAR          = -.42084686E-1
MEAN_MOTION_DOT = -.1915624E-1
MEAN_MOTION_DDOT = 0

CCSDS_OMM_VERS = 2.0
CREATION_DATE  = 
ORIGINATOR     = 

OBJECT_NAME    = STARLINK-36541
OBJECT_ID      = 2026-012S
CENTER_NAME    = EARTH
REF_FRAME      = TEME
TIME_SYSTEM    = UTC
MEAN_ELEMENT_THEORY = SGP/SGP4

EPOCH          = 2026-02-13T11:06:14.131584
MEAN_MOTION    = 15.50619440
ECCENTRICITY   = .00010253
INCLINATION    = 43.0021
RA_OF_ASC_NODE = 92.3654
ARG_OF_PERICENTER = 265.0376
MEAN_ANOMALY   = 95.0367

EPHEMERIS_TYPE = 0
CLASSIFICATION_TYPE = U
NORAD_CAT_ID   = 67509
ELEMENT_SET_NO = 999
REV_AT_EPOCH   = 404
BSTAR          = .10665847E-2
MEAN_MOTION_DOT = .62823E-3
MEAN_MOTION_DDOT = 0

CCSDS_OMM_VERS = 2.0
CREATION_DATE  = 
ORIGINATOR     = 

OBJECT_NAME    = STARLINK-36549
OBJECT_ID      = 2026-012T
CENTER_NAME    = EARTH
REF_FRAME      = TEME
TIME_SYSTEM    = UTC
MEAN_ELEMENT_THEORY = SGP/SGP4

EPOCH          = 2026-02-14T06:00:02.000160
MEAN_MOTION    = 15.43889636
ECCENTRICITY   = .00010776
INCLINATION    = 43.0003
RA_OF_ASC_NODE = 86.6084
ARG_OF_PERICENTER = 288.6902
MEAN_ANOMALY   = 256.3125

EPHEMERIS_TYPE = 0
CLASSIFICATION_TYPE = U
NORAD_CAT_ID   = 67510
ELEMENT_SET_NO = 999
REV_AT_EPOCH   = 524
BSTAR          = -.4676477E-1
MEAN_MOTION_DOT = -.1944502E-1
MEAN_MOTION_DDOT = 0

CCSDS_OMM_VERS = 2.0
CREATION_DATE  = 
ORIGINATOR     = 

OBJECT_NAME    = STARLINK-36540
OBJECT_ID      = 2026-012U
CENTER_NAME    = EARTH
REF_FRAME      = TEME
TIME_SYSTEM    = UTC
MEAN_ELEMENT_THEORY = SGP/SGP4

EPOCH          = 2026-02-14T02:31:25.529376
MEAN_MOTION    = 15.50620758
ECCENTRICITY   = .00007404
INCLINATION    = 43.0013
RA_OF_ASC_NODE = 88.5879
ARG_OF_PERICENTER = 259.3217
MEAN_ANOMALY   = 100.7560

EPHEMERIS_TYPE = 0
CLASSIFICATION_TYPE = U
NORAD_CAT_ID   = 67511
ELEMENT_SET_NO = 999
REV_AT_EPOCH   = 414
BSTAR          = .13243461E-2
MEAN_MOTION_DOT = .78247E-3
MEAN_MOTION_DDOT = 0

CCSDS_OMM_VERS = 2.0
CREATION_DATE  = 
ORIGINATOR     = 

OBJECT_NAME    = STARLINK-36538
OBJECT_ID      = 2026-012V
CENTER_NAME    = EARTH
REF_FRAME      = TEME
TIME_SYSTEM    = UTC
MEAN_ELEMENT_THEORY = SGP/SGP4

EPOCH          = 2026-02-14T06:00:02.000160
MEAN_MOTION    = 15.37634441
ECCENTRICITY   = .00013248
INCLINATION    = 42.9998
RA_OF_ASC_NODE = 87.1166
ARG_OF_PERICENTER = 264.6032
MEAN_ANOMALY   = 77.1018

EPHEMERIS_TYPE = 0
CLASSIFICATION_TYPE = U
NORAD_CAT_ID   = 67512
ELEMENT_SET_NO = 999
REV_AT_EPOCH   = 530
BSTAR          = -.55459219E-1
MEAN_MOTION_DOT = -.1877635E-1
MEAN_MOTION_DDOT = 0

CCSDS_OMM_VERS = 2.0
CREATION_DATE  = 
ORIGINATOR     = 

OBJECT_NAME    = STARLINK-36531
OBJECT_ID      = 2026-012W
CENTER_NAME    = EARTH
REF_FRAME      = TEME
TIME_SYSTEM    = UTC
MEAN_ELEMENT_THEORY = SGP/SGP4

EPOCH          = 2026-02-14T06:00:02.000160
MEAN_MOTION    = 15.39071462
ECCENTRICITY   = .00015647
INCLINATION    = 43.0003
RA_OF_ASC_NODE = 87.0103
ARG_OF_PERICENTER = 266.4590
MEAN_ANOMALY   = 118.5651

EPHEMERIS_TYPE = 0
CLASSIFICATION_TYPE = U
NORAD_CAT_ID   = 67513
ELEMENT_SET_NO = 999
REV_AT_EPOCH   = 524
BSTAR          = -.53268577E-1
MEAN_MOTION_DOT = -.1889698E-1
MEAN_MOTION_DDOT = 0

CCSDS_OMM_VERS = 2.0
CREATION_DATE  = 
ORIGINATOR     = 

OBJECT_NAME    = STARLINK-36530
OBJECT_ID      = 2026-012X
CENTER_NAME    = EARTH
REF_FRAME      = TEME
TIME_SYSTEM    = UTC
MEAN_ELEMENT_THEORY = SGP/SGP4

EPOCH          = 2026-02-14T06:00:02.000160
MEAN_MOTION    = 15.40219619
ECCENTRICITY   = .00014737
INCLINATION    = 43.0006
RA_OF_ASC_NODE = 87.0323
ARG_OF_PERICENTER = 266.3186
MEAN_ANOMALY   = 109.4114

EPHEMERIS_TYPE = 0
CLASSIFICATION_TYPE = U
NORAD_CAT_ID   = 67514
ELEMENT_SET_NO = 999
REV_AT_EPOCH   = 524
BSTAR          = -.52816358E-1
MEAN_MOTION_DOT = -.1940527E-1
MEAN_MOTION_DDOT = 0

CCSDS_OMM_VERS = 2.0
CREATION_DATE  = 
ORIGINATOR     = 

OBJECT_NAME    = STARLINK-36543
OBJECT_ID      = 2026-012Y
CENTER_NAME    = EARTH
REF_FRAME      = TEME
TIME_SYSTEM    = UTC
MEAN_ELEMENT_THEORY = SGP/SGP4

EPOCH          = 2026-02-14T06:00:02.000160
MEAN_MOTION    = 15.41400696
ECCENTRICITY   = .00014958
INCLINATION    = 43.0004
RA_OF_ASC_NODE = 87.0617
ARG_OF_PERICENTER = 265.6317
MEAN_ANOMALY   = 98.3524

EPHEMERIS_TYPE = 0
CLASSIFICATION_TYPE = U
NORAD_CAT_ID   = 67515
ELEMENT_SET_NO = 999
REV_AT_EPOCH   = 524
BSTAR          = -.50627882E-1
MEAN_MOTION_DOT = -.1935816E-1
MEAN_MOTION_DDOT = 0

CCSDS_OMM_VERS = 2.0
CREATION_DATE  = 
ORIGINATOR     = 

OBJECT_NAME    = STARLINK-36537
OBJECT_ID      = 2026-012Z
CENTER_NAME    = EARTH
REF_FRAME      = TEME
TIME_SYSTEM    = UTC
MEAN_ELEMENT_THEORY = SGP/SGP4

EPOCH          = 2026-02-14T06:00:02.000160
MEAN_MOTION    = 15.41399043
ECCENTRICITY   = .00017988
INCLINATION    = 43.0004
RA_OF_ASC_NODE = 86.8906
ARG_OF_PERICENTER = 271.5198
MEAN_ANOMALY   = 161.2827

EPHEMERIS_TYPE = 0
CLASSIFICATION_TYPE = U
NORAD_CAT_ID   = 67516
ELEMENT_SET_NO = 999
REV_AT_EPOCH   = 524
BSTAR          = -.4563664E-1
MEAN_MOTION_DOT = -.1763204E-1
MEAN_MOTION_DDOT = 0

CCSDS_OMM_VERS = 2.0
CREATION_DATE  = 
ORIGINATOR     = 

OBJECT_NAME    = STARLINK-36544
OBJECT_ID      = 2026-012AA
CENTER_NAME    = EARTH
REF_FRAME      = TEME
TIME_SYSTEM    = UTC
MEAN_ELEMENT_THEORY = SGP/SGP4

EPOCH          = 2026-02-14T06:00:02.000160
MEAN_MOTION    = 15.39645263
ECCENTRICITY   = .00012691
INCLINATION    = 43.0006
RA_OF_ASC_NODE = 86.8868
ARG_OF_PERICENTER = 278.6405
MEAN_ANOMALY   = 155.9622

EPHEMERIS_TYPE = 0
CLASSIFICATION_TYPE = U
NORAD_CAT_ID   = 67517
ELEMENT_SET_NO = 999
REV_AT_EPOCH   = 530
BSTAR          = -.51708646E-1
MEAN_MOTION_DOT = -.1871531E-1
MEAN_MOTION_DDOT = 0

CCSDS_OMM_VERS = 2.0
CREATION_DATE  = 
ORIGINATOR     = 

OBJECT_NAME    = STARLINK-36412
OBJECT_ID      = 2026-012AB
CENTER_NAME    = EARTH
REF_FRAME      = TEME
TIME_SYSTEM    = UTC
MEAN_ELEMENT_THEORY = SGP/SGP4

EPOCH          = 2026-02-14T06:00:02.000160
MEAN_MOTION    = 15.44536367
ECCENTRICITY   = .00013369
INCLINATION    = 43.0007
RA_OF_ASC_NODE = 86.7915
ARG_OF_PERICENTER = 284.6432
MEAN_ANOMALY   = 188.3322

EPHEMERIS_TYPE = 0
CLASSIFICATION_TYPE = U
NORAD_CAT_ID   = 67518
ELEMENT_SET_NO = 999
REV_AT_EPOCH   = 524
BSTAR          = -.4439406E-1
MEAN_MOTION_DOT = -.1893302E-1
MEAN_MOTION_DDOT = 0

CCSDS_OMM_VERS = 2.0
CREATION_DATE  = 
ORIGINATOR     = 

OBJECT_NAME    = STARLINK-36415
OBJECT_ID      = 2026-012AC
CENTER_NAME    = EARTH
REF_FRAME      = TEME
TIME_SYSTEM    = UTC
MEAN_ELEMENT_THEORY = SGP/SGP4

EPOCH          = 2026-02-14T06:00:02.000160
MEAN_MOTION    = 15.45411074
ECCENTRICITY   = .00012842
INCLINATION    = 43.0005
RA_OF_ASC_NODE = 86.7503
ARG_OF_PERICENTER = 288.2122
MEAN_ANOMALY   = 200.7920

EPHEMERIS_TYPE = 0
CLASSIFICATION_TYPE = U
NORAD_CAT_ID   = 67519
ELEMENT_SET_NO = 999
REV_AT_EPOCH   = 545
BSTAR          = -.43282779E-1
MEAN_MOTION_DOT = -.1901495E-1
MEAN_MOTION_DDOT = 0

