STARLINK-36526          
1 67508U 26012R   26045.25002315 -.01915624  00000+0 -42085-1 0  9991
2 67508  43.0000  86.7048 0001215 278.5706 230.6565 15.46457258  5304
STARLINK-36541          
1 67509U 26012S   26044.46266356  .00062823  00000+0  10666-2 0  9993
2 67509  43.0021  92.3654 0001025 265.0376  95.0367 15.50619440  4048
STARLINK-36549          
1 67510U 26012T   26045.25002315 -.01944502  00000+0 -46765-1 0  9990
2 67510  43.0003  86.6084 0001077 288.6902 256.3125 15.43889636  5241
STARLINK-36540          
1 67511U 26012U   26045.10515659  .00078247  00000+0  13243-2 0  9992
2 67511  43.0013  88.5879 0000740 259.3217 100.7560 15.50620758  4145
STARLINK-36538          
1 67512U 26012V   26045.25002315 -.01877635  00000+0 -55459-1 0  9994
2 67512  42.9998  87.1166 0001324 264.6032  77.1018 15.37634441  5306
STARLINK-36531          
1 67513U 26012W   26045.25002315 -.01889698  00000+0 -53269-1 0  9994
2 67513  43.0003  87.0103 0001564 266.4590 118.5651 15.39071462  5247
STARLINK-36530          
1 67514U 26012X   26045.25002315 -.01940527  00000+0 -52816-1 0  9991
2 67514  43.0006  87.0323 0001473 266.3186 109.4114 15.40219619  5247
STARLINK-36543          
1 67515U 26012Y   26045.25002315 -.01935816  00000+0 -50628-1 0  9996
2 67515  43.0004  87.0617 0001495 265.6317  98.3524 15.41400696  5243
STARLINK-36537          
1 67516U 26012Z   26045.25002315 -.01763204  00000+0 -45637-1 0  9991
2 67516  43.0004  86.8906 0001798 271.5198 161.2827 15.41399043  5240
STARLINK-36544          
1 67517U 26012AA  26045.25002315 -.01871531  00000+0 -51709-1 0  9992
2 67517  43.0006  86.8868 0001269 278.6405 155.9622 15.39645263  5307
STARLINK-36412          
1 67518U 26012AB  26045.25002315 -.01893302  00000+0 -44394-1 0  9995
2 67518  43.0007  86.7915 0001336 284.6432 188.3322 15.44536367  5243
STARLINK-36415          
1 67519U 26012AC  26045.25002315 -.01901495  00000+0 -43283-1 0  9995
2 67519  43.0005  86.7503 0001284 288.2122 200.7920 15.45411074  5457
